[{"OBJECT_NAME":"PELICAN-5","OBJECT_ID":"2025-276B","EPOCH":"2026-03-09T22:00:01.999584","MEAN_MOTION":15.24716853,"ECCENTRICITY":6.9e-5,"INCLINATION":97.424,"RA_OF_ASC_NODE":144.3271,"ARG_OF_PERICENTER":285.782,"MEAN_ANOMALY":285.5775,"EPHEMERIS_TYPE":0,"CLASSIFICATION_TYPE":"U","NORAD_CAT_ID":66667,"ELEMENT_SET_NO":999,"REV_AT_EPOCH":130,"BSTAR":-7.274852e-5,"MEAN_MOTION_DOT":-1.868e-5,"MEAN_MOTION_DDOT":0},{"OBJECT_NAME":"IRIDIUM 45","OBJECT_ID":"1997-082A","EPOCH":"2026-03-09T19:43:04.689120","MEAN_MOTION":15.36676082,"ECCENTRICITY":0.00899413,"INCLINATION":86.3479,"RA_OF_ASC_NODE":277.5722,"ARG_OF_PERICENTER":47.6509,"MEAN_ANOMALY":313.2314,"EPHEMERIS_TYPE":0,"CLASSIFICATION_TYPE":"U","NORAD_CAT_ID":25104,"ELEMENT_SET_NO":999,"REV_AT_EPOCH":49262,"BSTAR":0.00064625537,"MEAN_MOTION_DOT":0.00026618,"MEAN_MOTION_DDOT":0}]
